line1,line2,validFromUtcTime
1 00000U 00000E   26001.00000000  .00000000  00000-0  27772-4 0    01,2 00000  88.8751  60.3317 0009809 270.4526 172.1212 13.55232836    05,2026-01-01T00:00:00Z
1 00000U 00000E   26002.00000000  .00000000  00000-0  27772-4 0    02,2 00000  88.8751  60.2176 0009924 266.6833  11.8556 13.55248782    00,2026-01-02T00:00:00Z
